{
  "norad_id": 60373,
  "name": "STARLINK-32223",
  "history": [
    {
      "epoch": "2026-03-28T17:49:41.482272Z",
      "apogee_km": 475.84327837503224,
      "perigee_km": 474.6128252136332,
      "latitude_deg": 7.225165480880807e-05,
      "longitude_deg": 127.59669743918421,
      "height_km": 476.4423222893514,
      "semi_major_axis_km": 6853.365051794332,
      "eccentricity": 8.977e-05,
      "inclination_deg": 53.1598,
      "raan_deg": 221.1784,
      "arg_perigee_deg": 120.8591,
      "mean_anomaly_deg": 239.2499,
      "mean_motion_rev_day": 15.30195652
    }
  ]
}